ONEWEB-0458             
1 51648U 22012AC  26030.13459502  .00000060  00000+0  13568-3 0  9992
2 51648  87.8767  63.7660 0001868  90.0559 270.0783 13.10376921191223
ONEWEB-0461             
1 51649U 22012AD  26030.10118748 -.00000053  00000+0 -16845-3 0  9999
2 51649  87.9099  33.2834 0001918  92.5484 267.5867 13.17648477195704
ONEWEB-0463             
1 51650U 22012AE  26030.08264458  .00000053  00000+0  10239-3 0  9997
2 51650  87.9084  33.3237 0001880  92.9348 267.1998 13.17649759195489
ONEWEB-0464             
1 51651U 22012AF  26030.13126422 -.00000231  00000+0 -69927-3 0  9990
2 51651  87.8757  63.7984 0001556  95.5156 264.6149 13.10376892191246
ONEWEB-0468             
1 51652U 22012AG  26030.06155744  .00000236  00000+0  63889-3 0  9996
2 51652  87.8761  63.8061 0001668  90.0512 270.0806 13.10377346191212
ONEWEB-0473             
1 51653U 22012AH  26030.12296037 -.00000617  00000+0 -18026-2 0  9992
2 51653  87.8756  63.7963 0001808  91.2762 268.8572 13.10375028191224
ONEWEB-0474             
1 51654U 22012AJ  26030.11466128 -.00000729  00000+0 -21243-2 0  9991
2 51654  87.8766  63.7690 0001557  90.8056 269.3250 13.10371476191216
ONEWEB-0475             
1 51655U 22012AK  26030.24632286 -.00000032  00000+0 -11496-3 0  9993
2 51655  87.9086  33.2822 0001560  66.3277 293.8019 13.17649553195523
ONEWEB-0490             
1 54113U 22138A   26030.22383325  .00000102  00000+0  22155-3 0  9999
2 54113  87.9253 332.4199 0001538  79.6577 280.4729 13.19727530158632
ONEWEB-0492             
1 54114U 22138B   26030.24909838  .00000149  00000+0  34049-3 0  9991
2 54114  87.9244 332.4258 0001552  83.6992 276.4317 13.19727219158644
ONEWEB-0495             
1 54115U 22138C   26030.22699201 -.00000007  00000+0 -49523-4 0  9999
2 54115  87.9244 332.4323 0001090  67.5072 292.6177 13.19728031158620
ONEWEB-0497             
1 54116U 22138D   26030.23962763  .00000081  00000+0  16927-3 0  9998
2 54116  87.9248 332.4192 0001658  78.4396 281.6923 13.19727679158612
ONEWEB-0499             
1 54117U 22138E   26030.22304222  .00000039  00000+0  64193-4 0  9990
2 54117  87.9244 332.4336 0001694  70.6065 289.5251 13.19726610158622
ONEWEB-0500             
1 54118U 22138F   26030.22539902  .00000087  00000+0  18553-3 0  9997
2 54118  87.9247 332.4217 0001757  82.2879 277.8454 13.19728392158631
ONEWEB-0501             
1 54119U 22138G   26030.25541799 -.00000001  00000+0 -35031-4 0  9997
2 54119  87.9250 332.4171 0001414  73.4351 286.6937 13.19727691158615
ONEWEB-0502             
1 54120U 22138H   26030.24120841  .00000072  00000+0  14769-3 0  9999
2 54120  87.9255 332.4018 0001563  71.4158 288.7144 13.19727531158638
