[{"OBJECT_NAME":"ONEWEB-0458","OBJECT_ID":"2022-012AC","EPOCH":"2026-01-30T03:13:49.009728","MEAN_MOTION":13.10376921,"ECCENTRICITY":0.00018683,"INCLINATION":87.8767,"RA_OF_ASC_NODE":63.766,"ARG_OF_PERICENTER":90.0559,"MEAN_ANOMALY":270.0783,"EPHEMERIS_TYPE":0,"CLASSIFICATION_TYPE":"U","NORAD_CAT_ID":51648,"ELEMENT_SET_NO":999,"REV_AT_EPOCH":19122,"BSTAR":0.00013568207,"MEAN_MOTION_DOT":6.0e-7,"MEAN_MOTION_DDOT":0},{"OBJECT_NAME":"ONEWEB-0461","OBJECT_ID":"2022-012AD","EPOCH":"2026-01-30T02:25:42.598272","MEAN_MOTION":13.17648477,"ECCENTRICITY":0.00019185,"INCLINATION":87.9099,"RA_OF_ASC_NODE":33.2834,"ARG_OF_PERICENTER":92.5484,"MEAN_ANOMALY":267.5867,"EPHEMERIS_TYPE":0,"CLASSIFICATION_TYPE":"U","NORAD_CAT_ID":51649,"ELEMENT_SET_NO":999,"REV_AT_EPOCH":19570,"BSTAR":-0.00016845122,"MEAN_MOTION_DOT":-5.3e-7,"MEAN_MOTION_DDOT":0},{"OBJECT_NAME":"ONEWEB-0463","OBJECT_ID":"2022-012AE","EPOCH":"2026-01-30T01:59:00.491712","MEAN_MOTION":13.17649759,"ECCENTRICITY":0.00018803,"INCLINATION":87.9084,"RA_OF_ASC_NODE":33.3237,"ARG_OF_PERICENTER":92.9348,"MEAN_ANOMALY":267.1998,"EPHEMERIS_TYPE":0,"CLASSIFICATION_TYPE":"U","NORAD_CAT_ID":51650,"ELEMENT_SET_NO":999,"REV_AT_EPOCH":19548,"BSTAR":0.00010239235,"MEAN_MOTION_DOT":5.3e-7,"MEAN_MOTION_DDOT":0},{"OBJECT_NAME":"ONEWEB-0464","OBJECT_ID":"2022-012AF","EPOCH":"2026-01-30T03:09:01.228608","MEAN_MOTION":13.10376892,"ECCENTRICITY":0.00015568,"INCLINATION":87.8757,"RA_OF_ASC_NODE":63.7984,"ARG_OF_PERICENTER":95.5156,"MEAN_ANOMALY":264.6149,"EPHEMERIS_TYPE":0,"CLASSIFICATION_TYPE":"U","NORAD_CAT_ID":51651,"ELEMENT_SET_NO":999,"REV_AT_EPOCH":19124,"BSTAR":-0.00069927186,"MEAN_MOTION_DOT":-2.31e-6,"MEAN_MOTION_DDOT":0},{"OBJECT_NAME":"ONEWEB-0468","OBJECT_ID":"2022-012AG","EPOCH":"2026-01-30T01:28:38.562816","MEAN_MOTION":13.10377346,"ECCENTRICITY":0.00016682,"INCLINATION":87.8761,"RA_OF_ASC_NODE":63.8061,"ARG_OF_PERICENTER":90.0512,"MEAN_ANOMALY":270.0806,"EPHEMERIS_TYPE":0,"CLASSIFICATION_TYPE":"U","NORAD_CAT_ID":51652,"ELEMENT_SET_NO":999,"REV_AT_EPOCH":19121,"BSTAR":0.00063888823,"MEAN_MOTION_DOT":2.36e-6,"MEAN_MOTION_DDOT":0},{"OBJECT_NAME":"ONEWEB-0473","OBJECT_ID":"2022-012AH","EPOCH":"2026-01-30T02:57:03.775968","MEAN_MOTION":13.10375028,"ECCENTRICITY":0.00018089,"INCLINATION":87.8756,"RA_OF_ASC_NODE":63.7963,"ARG_OF_PERICENTER":91.2762,"MEAN_ANOMALY":268.8572,"EPHEMERIS_TYPE":0,"CLASSIFICATION_TYPE":"U","NORAD_CAT_ID":51653,"ELEMENT_SET_NO":999,"REV_AT_EPOCH":19122,"BSTAR":-0.0018025808,"MEAN_MOTION_DOT":-6.17e-6,"MEAN_MOTION_DDOT":0},{"OBJECT_NAME":"ONEWEB-0474","OBJECT_ID":"2022-012AJ","EPOCH":"2026-01-30T02:45:06.734592","MEAN_MOTION":13.10371476,"ECCENTRICITY":0.00015572,"INCLINATION":87.8766,"RA_OF_ASC_NODE":63.769,"ARG_OF_PERICENTER":90.8056,"MEAN_ANOMALY":269.325,"EPHEMERIS_TYPE":0,"CLASSIFICATION_TYPE":"U","NORAD_CAT_ID":51654,"ELEMENT_SET_NO":999,"REV_AT_EPOCH":19121,"BSTAR":-0.0021242769,"MEAN_MOTION_DOT":-7.29e-6,"MEAN_MOTION_DDOT":0},{"OBJECT_NAME":"ONEWEB-0475","OBJECT_ID":"2022-012AK","EPOCH":"2026-01-30T05:54:42.295104","MEAN_MOTION":13.17649553,"ECCENTRICITY":0.00015606,"INCLINATION":87.9086,"RA_OF_ASC_NODE":33.2822,"ARG_OF_PERICENTER":66.3277,"MEAN_ANOMALY":293.8019,"EPHEMERIS_TYPE":0,"CLASSIFICATION_TYPE":"U","NORAD_CAT_ID":51655,"ELEMENT_SET_NO":999,"REV_AT_EPOCH":19552,"BSTAR":-0.00011495679,"MEAN_MOTION_DOT":-3.2e-7,"MEAN_MOTION_DDOT":0},{"OBJECT_NAME":"ONEWEB-0490","OBJECT_ID":"2022-138A","EPOCH":"2026-01-30T05:22:19.192800","MEAN_MOTION":13.1972753,"ECCENTRICITY":0.00015384,"INCLINATION":87.9253,"RA_OF_ASC_NODE":332.4199,"ARG_OF_PERICENTER":79.6577,"MEAN_ANOMALY":280.4729,"EPHEMERIS_TYPE":0,"CLASSIFICATION_TYPE":"U","NORAD_CAT_ID":54113,"ELEMENT_SET_NO":999,"REV_AT_EPOCH":15863,"BSTAR":0.0002215543,"MEAN_MOTION_DOT":1.02e-6,"MEAN_MOTION_DDOT":0},{"OBJECT_NAME":"ONEWEB-0492","OBJECT_ID":"2022-138B","EPOCH":"2026-01-30T05:58:42.100032","MEAN_MOTION":13.19727219,"ECCENTRICITY":0.00015524,"INCLINATION":87.9244,"RA_OF_ASC_NODE":332.4258,"ARG_OF_PERICENTER":83.6992,"MEAN_ANOMALY":276.4317,"EPHEMERIS_TYPE":0,"CLASSIFICATION_TYPE":"U","NORAD_CAT_ID":54114,"ELEMENT_SET_NO":999,"REV_AT_EPOCH":15864,"BSTAR":0.00034048731,"MEAN_MOTION_DOT":1.49e-6,"MEAN_MOTION_DDOT":0},{"OBJECT_NAME":"ONEWEB-0495","OBJECT_ID":"2022-138C","EPOCH":"2026-01-30T05:26:52.109664","MEAN_MOTION":13.19728031,"ECCENTRICITY":0.00010901,"INCLINATION":87.9244,"RA_OF_ASC_NODE":332.4323,"ARG_OF_PERICENTER":67.5072,"MEAN_ANOMALY":292.6177,"EPHEMERIS_TYPE":0,"CLASSIFICATION_TYPE":"U","NORAD_CAT_ID":54115,"ELEMENT_SET_NO":999,"REV_AT_EPOCH":15862,"BSTAR":-4.9522526e-5,"MEAN_MOTION_DOT":-7.0e-8,"MEAN_MOTION_DDOT":0},{"OBJECT_NAME":"ONEWEB-0497","OBJECT_ID":"2022-138D","EPOCH":"2026-01-30T05:45:03.827232","MEAN_MOTION":13.19727679,"ECCENTRICITY":0.00016583,"INCLINATION":87.9248,"RA_OF_ASC_NODE":332.4192,"ARG_OF_PERICENTER":78.4396,"MEAN_ANOMALY":281.6923,"EPHEMERIS_TYPE":0,"CLASSIFICATION_TYPE":"U","NORAD_CAT_ID":54116,"ELEMENT_SET_NO":999,"REV_AT_EPOCH":15861,"BSTAR":0.00016927121,"MEAN_MOTION_DOT":8.1e-7,"MEAN_MOTION_DDOT":0},{"OBJECT_NAME":"ONEWEB-0499","OBJECT_ID":"2022-138E","EPOCH":"2026-01-30T05:21:10.847808","MEAN_MOTION":13.1972661,"ECCENTRICITY":0.00016944,"INCLINATION":87.9244,"RA_OF_ASC_NODE":332.4336,"ARG_OF_PERICENTER":70.6065,"MEAN_ANOMALY":289.5251,"EPHEMERIS_TYPE":0,"CLASSIFICATION_TYPE":"U","NORAD_CAT_ID":54117,"ELEMENT_SET_NO":999,"REV_AT_EPOCH":15862,"BSTAR":6.4193479e-5,"MEAN_MOTION_DOT":3.9e-7,"MEAN_MOTION_DDOT":0},{"OBJECT_NAME":"ONEWEB-0500","OBJECT_ID":"2022-138F","EPOCH":"2026-01-30T05:24:34.475328","MEAN_MOTION":13.19728392,"ECCENTRICITY":0.00017579,"INCLINATION":87.9247,"RA_OF_ASC_NODE":332.4217,"ARG_OF_PERICENTER":82.2879,"MEAN_ANOMALY":277.8454,"EPHEMERIS_TYPE":0,"CLASSIFICATION_TYPE":"U","NORAD_CAT_ID":54118,"ELEMENT_SET_NO":999,"REV_AT_EPOCH":15863,"BSTAR":0.000185529,"MEAN_MOTION_DOT":8.7e-7,"MEAN_MOTION_DDOT":0},{"OBJECT_NAME":"ONEWEB-0501","OBJECT_ID":"2022-138G","EPOCH":"2026-01-30T06:07:48.114336","MEAN_MOTION":13.19727691,"ECCENTRICITY":0.00014141,"INCLINATION":87.925,"RA_OF_ASC_NODE":332.4171,"ARG_OF_PERICENTER":73.4351,"MEAN_ANOMALY":286.6937,"EPHEMERIS_TYPE":0,"CLASSIFICATION_TYPE":"U","NORAD_CAT_ID":54119,"ELEMENT_SET_NO":999,"REV_AT_EPOCH":15861,"BSTAR":-3.503078e-5,"MEAN_MOTION_DOT":-1.0e-8,"MEAN_MOTION_DDOT":0},{"OBJECT_NAME":"ONEWEB-0502","OBJECT_ID":"2022-138H","EPOCH":"2026-01-30T05:47:20.406624","MEAN_MOTION":13.19727531,"ECCENTRICITY":0.00015631,"INCLINATION":87.9255,"RA_OF_ASC_NODE":332.4018,"ARG_OF_PERICENTER":71.4158,"MEAN_ANOMALY":288.7144,"EPHEMERIS_TYPE":0,"CLASSIFICATION_TYPE":"U","NORAD_CAT_ID":54120,"ELEMENT_SET_NO":999,"REV_AT_EPOCH":15863,"BSTAR":0.00014769182,"MEAN_MOTION_DOT":7.2e-7,"MEAN_MOTION_DDOT":0}]
